start=new Date('2023-05-07T00:00:00.000Z').valueOf();
sats=[{"EPHEMERIS_TYPE":"0","OBJECT_TYPE":"PAYLOAD","CLASSIFICATION_TYPE":"U","OBJECT_NAME":"STARLINK-2420","MEAN_ELEMENT_THEORY":"SGP4","MEAN_MOTION":"15.06400718","EPOCH":"2023-05-06T12:58:45.863904","SITE":"AFETR","PERIOD":"95.592","RCS_SIZE":"LARGE","RA_OF_ASC_NODE":"217.0511","APOAPSIS":"548.020","DECAY_DATE":null,"OBJECT_ID":"2021-018AW","MEAN_ANOMALY":"280.0204","BSTAR":"0.00213810000000","SEMIMAJOR_AXIS":"6925.346","LAUNCH_DATE":"2021-03-11","TLE_LINE1":"1 47831U 21018AW  23126.54080861  .00031710  00000-0  21381-2 0  9990","TIME_SYSTEM":"UTC","REF_FRAME":"TEME","REV_AT_EPOCH":"12038","MEAN_MOTION_DDOT":"0.0000000000000","FILE":"3902298","PERIAPSIS":"546.402","ARG_OF_PERICENTER":"80.0917","TLE_LINE2":"2 47831  53.0542 217.0511 0001168  80.0917 280.0204 15.06400718120384","CENTER_NAME":"EARTH","ELEMENT_SET_NO":"999","COUNTRY_CODE":"US","GP_ID":"231350562","NORAD_CAT_ID":"47831","ECCENTRICITY":"0.00011680","INCLINATION":"53.0542","MEAN_MOTION_DOT":"0.00031710"},{"LAUNCH_DATE":"2021-03-11","SEMIMAJOR_AXIS":"6925.333","BSTAR":"0.00257910000000","MEAN_ANOMALY":"278.6128","OBJECT_ID":"2021-018AX","DECAY_DATE":null,"RA_OF_ASC_NODE":"231.9450","RCS_SIZE":"LARGE","APOAPSIS":"547.719","SITE":"AFETR","PERIOD":"95.592","MEAN_ELEMENT_THEORY":"SGP4","OBJECT_NAME":"STARLINK-2422","MEAN_MOTION":"15.06405130","EPOCH":"2023-05-06T13:31:15.758976","CLASSIFICATION_TYPE":"U","EPHEMERIS_TYPE":"0","OBJECT_TYPE":"PAYLOAD","MEAN_MOTION_DOT":"0.00038349","ECCENTRICITY":"0.00007520","NORAD_CAT_ID":"47832","INCLINATION":"53.0537","GP_ID":"231350805","COUNTRY_CODE":"US","ELEMENT_SET_NO":"999","TLE_LINE2":"2 47832  53.0537 231.9450 0000752  81.4946 278.6128 15.06405130120124","CENTER_NAME":"EARTH","PERIAPSIS":"546.677","ARG_OF_PERICENTER":"81.4946","FILE":"3902298","MEAN_MOTION_DDOT":"0.0000000000000","REF_FRAME":"TEME","REV_AT_EPOCH":"12012","TLE_LINE1":"1 47832U 21018AX  23126.56337684  .00038349  00000-0  25791-2 0  9995","TIME_SYSTEM":"UTC"},{"PERIOD":"95.593","SITE":"AFETR","CLASSIFICATION_TYPE":"U","EPHEMERIS_TYPE":"0","OBJECT_TYPE":"PAYLOAD","MEAN_MOTION":"15.06380889","MEAN_ELEMENT_THEORY":"SGP4","OBJECT_NAME":"STARLINK-2423","EPOCH":"2023-05-06T12:32:51.997056","MEAN_ANOMALY":"295.5696","OBJECT_ID":"2021-018AY","SEMIMAJOR_AXIS":"6925.407","LAUNCH_DATE":"2021-03-11","BSTAR":"0.00217060000000","DECAY_DATE":null,"RCS_SIZE":"LARGE","RA_OF_ASC_NODE":"232.1312","APOAPSIS":"547.970","ARG_OF_PERICENTER":"64.5397","PERIAPSIS":"546.575","TLE_LINE2":"2 47833  53.0545 232.1312 0001007  64.5397 295.5696 15.06380889120176","CENTER_NAME":"EARTH","REF_FRAME":"TEME","REV_AT_EPOCH":"12017","TLE_LINE1":"1 47833U 21018AY  23126.52282404  .00032181  00000-0  21706-2 0  9991","TIME_SYSTEM":"UTC","FILE":"3902298","MEAN_MOTION_DDOT":"0.0000000000000","MEAN_MOTION_DOT":"0.00032181","ECCENTRICITY":"0.00010070","NORAD_CAT_ID":"47833","INCLINATION":"53.0545","ELEMENT_SET_NO":"999","GP_ID":"231350061","COUNTRY_CODE":"US"},{"TLE_LINE2":"2 47834  53.0543 232.0778 0001439  75.9988 284.1160 15.06417724120170","CENTER_NAME":"EARTH","PERIAPSIS":"546.163","ARG_OF_PERICENTER":"75.9988","MEAN_MOTION_DDOT":"0.0000000000000","FILE":"3902298","TIME_SYSTEM":"UTC","TLE_LINE1":"1 47834U 21018AZ  23126.53387919  .00014369  00000-0  98109-3 0  9990","REV_AT_EPOCH":"12017","REF_FRAME":"TEME","INCLINATION":"53.0543","NORAD_CAT_ID":"47834","ECCENTRICITY":"0.00014390","MEAN_MOTION_DOT":"0.00014369","COUNTRY_CODE":"US","GP_ID":"231350311","ELEMENT_SET_NO":"999","PERIOD":"95.591","SITE":"AFETR","EPOCH":"2023-05-06T12:48:47.162016","MEAN_MOTION":"15.06417724","MEAN_ELEMENT_THEORY":"SGP4","OBJECT_NAME":"STARLINK-2424","OBJECT_TYPE":"PAYLOAD","EPHEMERIS_TYPE":"0","CLASSIFICATION_TYPE":"U","BSTAR":"0.00098109000000","SEMIMAJOR_AXIS":"6925.294","LAUNCH_DATE":"2021-03-11","OBJECT_ID":"2021-018AZ","MEAN_ANOMALY":"284.1160","APOAPSIS":"548.156","RA_OF_ASC_NODE":"232.0778","RCS_SIZE":"LARGE","DECAY_DATE":null},{"OBJECT_TYPE":"PAYLOAD","EPHEMERIS_TYPE":"0","CLASSIFICATION_TYPE":"U","EPOCH":"2023-05-06T13:27:58.427424","MEAN_ELEMENT_THEORY":"SGP4","MEAN_MOTION":"15.06393714","OBJECT_NAME":"STARLINK-2425","PERIOD":"95.593","SITE":"AFETR","APOAPSIS":"547.857","RCS_SIZE":"LARGE","RA_OF_ASC_NODE":"237.0806","DECAY_DATE":null,"OBJECT_ID":"2021-018BA","MEAN_ANOMALY":"291.9185","BSTAR":"0.00229010000000","LAUNCH_DATE":"2021-03-11","SEMIMAJOR_AXIS":"6925.368","TIME_SYSTEM":"UTC","TLE_LINE1":"1 47835U 21018BA  23126.56109291  .00033989  00000-0  22901-2 0  9994","REV_AT_EPOCH":"11971","REF_FRAME":"TEME","MEAN_MOTION_DDOT":"0.0000000000000","FILE":"3902346","PERIAPSIS":"546.609","ARG_OF_PERICENTER":"68.1900","TLE_LINE2":"2 47835  53.0532 237.0806 0000901  68.1900 291.9185 15.06393714119710","CENTER_NAME":"EARTH","ELEMENT_SET_NO":"999","COUNTRY_CODE":"US","GP_ID":"231356897","INCLINATION":"53.0532","NORAD_CAT_ID":"47835","ECCENTRICITY":"0.00009010","MEAN_MOTION_DOT":"0.00033989"},{"TLE_LINE2":"2 47836  53.0535 232.0835 0000921  69.1263 290.9825 15.06400620120128","CENTER_NAME":"EARTH","PERIAPSIS":"546.574","ARG_OF_PERICENTER":"69.1263","FILE":"3902298","MEAN_MOTION_DDOT":"0.0000000000000","REF_FRAME":"TEME","REV_AT_EPOCH":"12012","TLE_LINE1":"1 47836U 21018BB  23126.55234487  .00036721  00000-0  24713-2 0  9990","TIME_SYSTEM":"UTC","MEAN_MOTION_DOT":"0.00036721","ECCENTRICITY":"0.00009210","NORAD_CAT_ID":"47836","INCLINATION":"53.0535","GP_ID":"231351306","COUNTRY_CODE":"US","ELEMENT_SET_NO":"999","PERIOD":"95.592","SITE":"AFETR","MEAN_MOTION":"15.06400620","MEAN_ELEMENT_THEORY":"SGP4","OBJECT_NAME":"STARLINK-2426","EPOCH":"2023-05-06T13:15:22.596768","CLASSIFICATION_TYPE":"U","EPHEMERIS_TYPE":"0","OBJECT_TYPE":"PAYLOAD","SEMIMAJOR_AXIS":"6925.347","LAUNCH_DATE":"2021-03-11","BSTAR":"0.00247130000000","MEAN_ANOMALY":"290.9825","OBJECT_ID":"2021-018BB","DECAY_DATE":null,"RA_OF_ASC_NODE":"232.0835","RCS_SIZE":"LARGE","APOAPSIS":"547.849"},{"GP_ID":"231349561","COUNTRY_CODE":"US","ELEMENT_SET_NO":"999","MEAN_MOTION_DOT":"0.00037330","INCLINATION":"53.0532","NORAD_CAT_ID":"47837","ECCENTRICITY":"0.00007760","FILE":"3902298","MEAN_MOTION_DDOT":"0.0000000000000","REV_AT_EPOCH":"12042","REF_FRAME":"TEME","TIME_SYSTEM":"UTC","TLE_LINE1":"1 47837U 21018BC  23126.62788381  .00037330  00000-0  25124-2 0  9990","CENTER_NAME":"EARTH","TLE_LINE2":"2 47837  53.0532 211.6603 0000776  52.6644 307.4416 15.06390597120424","ARG_OF_PERICENTER":"52.6644","PERIAPSIS":"546.705","DECAY_DATE":null,"APOAPSIS":"547.780","RA_OF_ASC_NODE":"211.6603","RCS_SIZE":"LARGE","SEMIMAJOR_AXIS":"6925.377","LAUNCH_DATE":"2021-03-11","BSTAR":"0.00251240000000","MEAN_ANOMALY":"307.4416","OBJECT_ID":"2021-018BC","EPOCH":"2023-05-06T15:04:09.161184","MEAN_MOTION":"15.06390597","OBJECT_NAME":"STARLINK-2427","MEAN_ELEMENT_THEORY":"SGP4","CLASSIFICATION_TYPE":"U","OBJECT_TYPE":"PAYLOAD","EPHEMERIS_TYPE":"0","PERIOD":"95.593","SITE":"AFETR"},{"NORAD_CAT_ID":"47838","ECCENTRICITY":"0.00011210","INCLINATION":"53.0543","MEAN_MOTION_DOT":"0.00036550","ELEMENT_SET_NO":"999","COUNTRY_CODE":"US","GP_ID":"231349811","PERIAPSIS":"546.420","ARG_OF_PERICENTER":"112.5337","CENTER_NAME":"EARTH","TLE_LINE2":"2 47838  53.0543 231.8959 0001121 112.5337 247.5771 15.06405512120124","TLE_LINE1":"1 47838U 21018BD  23126.57443342  .00036550  00000-0  24596-2 0  9995","TIME_SYSTEM":"UTC","REF_FRAME":"TEME","REV_AT_EPOCH":"12012","MEAN_MOTION_DDOT":"0.0000000000000","FILE":"3902298","OBJECT_ID":"2021-018BD","MEAN_ANOMALY":"247.5771","BSTAR":"0.00245960000000","LAUNCH_DATE":"2021-03-11","SEMIMAJOR_AXIS":"6925.332","RA_OF_ASC_NODE":"231.8959","RCS_SIZE":"LARGE","APOAPSIS":"547.973","DECAY_DATE":null,"PERIOD":"95.592","SITE":"AFETR","EPHEMERIS_TYPE":"0","OBJECT_TYPE":"PAYLOAD","CLASSIFICATION_TYPE":"U","OBJECT_NAME":"STARLINK-2429","MEAN_ELEMENT_THEORY":"SGP4","MEAN_MOTION":"15.06405512","EPOCH":"2023-05-06T13:47:11.047488"},{"ARG_OF_PERICENTER":"117.8418","PERIAPSIS":"546.372","TLE_LINE2":"2 47839  53.0526 202.3687 0001224 117.8418 242.2695 15.06398056120546","CENTER_NAME":"EARTH","REF_FRAME":"TEME","REV_AT_EPOCH":"12054","TLE_LINE1":"1 47839U 21018BE  23126.47030538  .00033904  00000-0  22842-2 0  9996","TIME_SYSTEM":"UTC","FILE":"3902298","MEAN_MOTION_DDOT":"0.0000000000000","MEAN_MOTION_DOT":"0.00033904","ECCENTRICITY":"0.00012240","NORAD_CAT_ID":"47839","INCLINATION":"53.0526","ELEMENT_SET_NO":"999","GP_ID":"231350563","COUNTRY_CODE":"US","PERIOD":"95.592","SITE":"AFETR","CLASSIFICATION_TYPE":"U","EPHEMERIS_TYPE":"0","OBJECT_TYPE":"PAYLOAD","MEAN_ELEMENT_THEORY":"SGP4","OBJECT_NAME":"STARLINK-2431","MEAN_MOTION":"15.06398056","EPOCH":"2023-05-06T11:17:14.384832","MEAN_ANOMALY":"242.2695","OBJECT_ID":"2021-018BE","SEMIMAJOR_AXIS":"6925.355","LAUNCH_DATE":"2021-03-11","BSTAR":"0.00228420000000","DECAY_DATE":null,"RCS_SIZE":"LARGE","RA_OF_ASC_NODE":"202.3687","APOAPSIS":"548.067"},{"RA_OF_ASC_NODE":"212.0220","RCS_SIZE":"LARGE","APOAPSIS":"548.088","DECAY_DATE":null,"OBJECT_ID":"2021-018BF","MEAN_ANOMALY":"276.1263","BSTAR":"0.00071494000000","SEMIMAJOR_AXIS":"6925.344","LAUNCH_DATE":"2021-03-11","EPHEMERIS_TYPE":"0","OBJECT_TYPE":"PAYLOAD","CLASSIFICATION_TYPE":"U","MEAN_MOTION":"15.06401399","MEAN_ELEMENT_THEORY":"SGP4","OBJECT_NAME":"STARLINK-2432","EPOCH":"2023-05-06T13:07:22.757088","PERIOD":"95.592","SITE":"AFETR","ELEMENT_SET_NO":"999","COUNTRY_CODE":"US","GP_ID":"231350806","ECCENTRICITY":"0.00012690","NORAD_CAT_ID":"47840","INCLINATION":"53.0536","MEAN_MOTION_DOT":"0.00010384","TLE_LINE1":"1 47840U 21018BF  23126.54679117  .00010384  00000-0  71494-3 0  9993","TIME_SYSTEM":"UTC","REF_FRAME":"TEME","REV_AT_EPOCH":"12040","MEAN_MOTION_DDOT":"0.0000000000000","FILE":"3902298","ARG_OF_PERICENTER":"83.9870","PERIAPSIS":"546.330","TLE_LINE2":"2 47840  53.0536 212.0220 0001269  83.9870 276.1263 15.06401399120401","CENTER_NAME":"EARTH"}];
